STARLINK-31735          
1 60054U 24112S   26068.42479683 -.00001653  00000+0 -43714-4 0  9999
2 60054  53.1604  79.3930 0001288  95.0797 265.0351 15.30180903 98552
SCS-01 D                
1 63985U 25100D   26068.75607686  .00032471  00000+0  10528-2 0  9990
2 63985  97.3730 145.4097 0006346 266.2302  93.8214 15.31902149 45621
